GUOWANG GROUP 20 OBJECT*
1 68131U 26047C   26092.50577046 -.00000096  00000+0  42136-4 0  9996
2 68131  50.0019 334.0677 0000669 236.5521 123.5312 13.86320500  2907
GUOWANG GROUP 20 OBJECT*
1 68132U 26047D   26092.57516225 -.00000084  00000+0  51916-4 0  9999
2 68132  50.0067 333.7806 0000710 245.0360 115.0463 13.86594040  2909
GUOWANG GROUP 20 OBJECT*
1 68133U 26047E   26092.71630789 -.00000104  00000+0  35303-4 0  9993
2 68133  50.0032 333.1791 0000640 212.5320 147.5538 13.86278934  2933
GUOWANG GROUP 20 OBJECT*
1 68134U 26047F   26092.56694514 -.00000033  00000+0  95092-4 0  9995
2 68134  50.0093 333.7419 0000629 256.4099 103.6728 13.87190720  2909
GUOWANG GROUP 20 OBJECT*
1 68135U 26047G   26092.56949596  .00000009  00000+0  13110-3 0  9991
2 68135  50.0112 333.7611 0000927 224.2337 135.8486 13.87026021  2916
GUOWANG GROUP 20 OBJECT*
1 68136U 26047H   26092.49226754 -.00000088  00000+0  48251-4 0  9991
2 68136  50.0086 334.0113 0000909 305.9014  54.1799 13.87381469  2894
GUOWANG GROUP 20 OBJECT*
1 68137U 26047J   26092.70556402 -.00000116  00000+0  24623-4 0  9991
2 68137  50.0058 333.1317 0000669 182.6269 177.4625 13.87066479  2938
CZ-8A R/B               
1 68138U 26047K   26092.95793286 -.00000040  00000+0  61130-4 0  9992
2 68138  49.9534 330.3247 0044763 221.6006 138.1493 14.12232615  2980
SHIYAN-30 03            
1 68139U 26048A   26092.93370777  .00004508  00000+0  44147-3 0  9998
2 68139  35.0016 358.7754 0002563  48.1243 311.9680 14.91763795  3127
SHIYAN-30 04            
1 68140U 26048B   26092.93440157  .00004301  00000+0  42137-3 0  9998
2 68140  34.9930 358.7739 0001032  49.2417 310.8378 14.91761883  3128
CZ-2D R/B               
1 68141U 26048C   26092.94972340  .00002766  00000+0  24662-3 0  9990
2 68141  35.1310 358.3305 0015646 179.7272 180.3447 14.95587587  3132
STARLINK-36604          
1 68142U 26049A   26092.91668981 -.00149010  00000+0 -10138-2 0  9990
2 68142  97.2851 113.3730 0001495  79.2192 259.5975 15.75231392  4523
